#aV2023  6 24  0  0  0.00000000     288 DD+AD WGS84 FIT  NGA
## 2267 518400.00000000   300.00000000 60119 0.0000000000000
+   32     1  2  3  4  5  6  7  8  9 10 11 12 13 14 15 16 17
+         18 19 20 21 22 23 24 25 26 27 28 29 30 31 32  0  0
+          0  0  0  0  0  0  0  0  0  0  0  0  0  0  0  0  0
+          0  0  0  0  0  0  0  0  0  0  0  0  0  0  0  0  0
+          0  0  0  0  0  0  0  0  0  0  0  0  0  0  0  0  0
++         2  2  2  2  2  2  2  2  2  2  2  2  2  2  2  2  2
++         2  2  2  2  2  2  2  2  2  2  2  2  2  2  2  0  0
++         0  0  0  0  0  0  0  0  0  0  0  0  0  0  0  0  0
++         0  0  0  0  0  0  0  0  0  0  0  0  0  0  0  0  0
++         0  0  0  0  0  0  0  0  0  0  0  0  0  0  0  0  0
%c cc cc ccc ccc cccc cccc cccc cccc ccccc ccccc ccccc ccccc
%c cc cc ccc ccc cccc cccc cccc cccc ccccc ccccc ccccc ccccc
%f  0.0000000  0.000000000  0.00000000000  0.000000000000000
%f  0.0000000  0.000000000  0.00000000000  0.000000000000000
%i    0    0    0    0      0      0      0      0         0
%i    0    0    0    0      0      0      0      0         0
/*      NGA, ST. LOUIS,MO.                                  
/*   EPHEMERIS COMPUTED FROM 2 DAYS OF DATA                 
/*   EPOCHA v8 SMOOTHER                                     
/*   G2139 IERS2010 SATIGS SATAPC                           
*  2023  6 24  0 40  0.00000000
P  1 -13212.732831  11767.293194  19348.411480    176.577266                    
V  1    -83.811581 -25380.495144  15447.837780     -0.022270                    
P  2 -14759.396770   5618.350673  21841.300584   -582.906905                    
V  2  -1987.659110 -26478.175073   5742.401553      0.036500                    
P  3 -23066.107320  13024.840725   -633.149475   -259.353697                    
V  3  -1668.826644  -1732.831529  32234.763764      0.141970                    
P  4 -16912.856935   5348.822254 -19791.683093     76.609481                    
V  4 -20370.975581 -14733.367143  13305.089707      0.104751                    
P  5  22335.959428  -1815.992994 -14524.342870   -132.272383                    
V  5 -14501.988332  10949.894219 -23853.340191     -0.014680                    
P  6   5593.431802  23991.800885  -9742.150772    583.270553                    
V  6  -2231.337385  12382.463387  29128.816543     -0.024602                    
P  7  -6401.792037  24062.338391  -8050.217568    144.151303                    
V  7  -3130.638092 -11094.834969 -29492.116938     -0.103429                    
P  8 -23641.631842  -4019.863179  11761.521409   -128.843564                    
V  8 -11861.289263  -9293.206469 -26462.218989     -0.018303                    
P  9  -7407.343897  13443.690050 -21747.841784   -128.649462                    
V  9 -23782.190623 -13724.762908   -426.695644      0.089817                    
P 10   -539.329359 -16011.818381  21301.387447    -42.409020                    
V 10  23725.720697 -12154.960819  -8911.087164     -0.015513                    
P 11  12948.916095  11860.693294 -19933.882856   -247.675091                    
V 11  -2960.411442  25149.140241  12992.962818     -0.153987                    
P 12  24583.909045  -9643.244930   2115.893335   -392.328103                    
V 12  -1607.276766   3761.517639  31759.780914     -0.047083                    
P 13  22493.070114  12707.254733   6446.614027    538.071493                    
V 13   5026.831229   7066.181980 -30407.553827      0.050896                    
P 14  -3115.826900  17447.619258  19750.753135    100.435688                    
V 14 -23042.568389  10125.567648 -12745.347384      0.122745                    
P 15  23784.827686    882.238165  11587.048405     51.656826                    
V 15  12935.879355   8874.878469 -25928.997994      0.035173                    
P 16 -20655.022534  -3722.472685 -16844.956274   -488.335196                    
V 16  18360.463785  -9498.114305 -20350.684519      0.040114                    
P 17   8286.197399  19430.287317  16463.833840    719.273608                    
V 17 -17383.393183 -10250.548748  21511.188542      0.010772                    
P 18   5017.872544 -25346.257645  -5772.843679   -319.437220                    
V 18   2139.360236   7449.162610 -31012.777547     -0.147911                    
P 19  15197.469807  19740.497938   9427.804545    334.661305                    
V 19 -10881.864396  -5815.436547  28730.785429      0.051164                    
P 20  16382.947818   5423.464182 -20104.792460    426.367138                    
V 20 -19404.484446  16895.429443 -11420.229807     -0.020648                    
P 21 -15382.464477   1401.693075  22128.721825    152.842802                    
V 21  -2107.002872 -26759.433818   1100.068163     -0.003395                    
P 22 -17268.990504 -19039.636160   7455.013445    502.548637                    
V 22   8533.143840   3276.406968  29810.417883      0.058277                    
P 23  12109.546607 -18517.418279  14580.322007     36.148728                    
V 23  16967.579383  -7711.638290 -24044.301615      0.037722                    
P 24  14701.062059  -7291.649330  20451.886515   -235.160773                    
V 24   2885.625678  26849.747349   7786.937813     -0.128702                    
P 25  18056.140814 -17324.156773  -8809.719582    451.779556                    
V 25  10899.839639  -2743.650994  29017.116427      0.024555                    
P 26 -11451.099476 -11347.667219 -21255.333769    238.328447                    
V 26  22414.752439 -14677.381786  -3920.333212     -0.009356                    
P 27 -23330.066926 -13069.781886   1282.347588     10.480483                    
V 27   -461.750021  -2932.765594 -31575.351727     -0.075227                    
P 28  -5692.975045 -24756.806140  -7783.455090     83.615588                    
V 28   2518.667253  -9881.074585  29661.242785      0.001486                    
P 29  10121.926395 -11038.181626 -21994.486463   -603.708728                    
V 29  22454.277735  16292.029939   2069.364103     -0.010898                    
P 30    176.372635  26381.811647   1396.312412   -509.036393                    
V 30  -3906.704116   1530.108893 -31279.020727      0.025272                    
P 31 -11498.915772 -16512.027388 -17289.404515   -218.766347                    
V 31   3056.952449 -21685.491166  19287.377018     -0.007370                    
P 32 -11844.490099 -19004.109651  14616.792025   -506.823684                    
V 32  16588.849969   7661.750465  23505.896554     -0.082188                    
EOF
